
# Worst residual: 167.58 km
# MJD 59181.000000 (2020 Nov 28  0:00)
ZTF0KOI = ZTF0K7F
1 99999U 00000    20333.49919926  .00000000  00000-0  00000-0 0 11347
2 99999 016.6580 353.2463 5490596 276.0901 290.7330 00.97601329    03

# Worst residual: 173.87 km
# MJD 59182.000000 (2020 Nov 29  0:00)
ZTF0KOI = ZTF0K7F
1 99999U 00000    20334.49919926  .00000000  00000-0  00000-0 0 11348
2 99999 016.6523 353.3931 5534847 276.7993 280.3449 00.97564037    07

# Worst residual: 168.80 km
# MJD 59183.000000 (2020 Nov 30  0:00)
ZTF0KOI = ZTF0K7F
1 99999U 00000    20335.49919926  .00000000  00000-0  00000-0 0 11349
2 99999 016.6481 353.5407 5576014 277.5068 269.9914 00.97524564    05

# Worst residual: 169.86 km
# MJD 59184.000000 (2020 Dec  1  0:00)
ZTF0KOI = ZTF0K7F
1 99999U 00000    20336.49919926  .00000000  00000-0  00000-0 0 11340
2 99999 016.6390 353.7018 5619088 278.1902 259.6974 00.97472306    05

# Worst residual: 176.54 km
# MJD 59185.000000 (2020 Dec  2  0:00)
ZTF0KOI = ZTF0K7F
1 99999U 00000    20337.49919926  .00000000  00000-0  00000-0 0 11341
2 99999 016.6310 353.8671 5659926 278.8757 249.4108 00.97424267    02

# Worst residual: 156.78 km
# MJD 59186.000000 (2020 Dec  3  0:00)
ZTF0KOI = ZTF0K7F
1 99999U 00000    20338.49919926  .00000000  00000-0  00000-0 0 11342
2 99999 016.6301 354.0617 5699578 279.5331 239.1350 00.97389562    01

# Worst residual: 138.72 km
# MJD 59187.000000 (2020 Dec  4  0:00)
ZTF0KOI = ZTF0K7F
1 99999U 00000    20339.49919926  .00000000  00000-0  00000-0 0 11343
2 99999 016.6121 354.2314 5737499 280.2067 228.8853 00.97325016    04

# Worst residual: 123.06 km
# MJD 59188.000000 (2020 Dec  5  0:00)
ZTF0KOI = ZTF0K7F
1 99999U 00000    20340.49919926  .00000000  00000-0  00000-0 0 11345
2 99999 016.5994 354.4044 5772448 280.8805 218.6176 00.97253005    05

# Worst residual: 95.59 km
# MJD 59189.000000 (2020 Dec  6  0:00)
ZTF0KOI = ZTF0K7F
1 99999U 00000    20341.49919926  .00000000  00000-0  00000-0 0 11346
2 99999 016.5876 354.5969 5808735 281.5555 208.3154 00.97212605    03

# Worst residual: 77.52 km
# MJD 59190.000000 (2020 Dec  7  0:00)
ZTF0KOI = ZTF0K7F
1 99999U 00000    20342.49919926  .00000000  00000-0  00000-0 0 11347
2 99999 016.5724 354.7923 5846742 282.2161 198.0376 00.97173204    00

# Worst residual: 70.53 km
# MJD 59191.000000 (2020 Dec  8  0:00)
ZTF0KOI = ZTF0K7F
1 99999U 00000    20343.49919926  .00000000  00000-0  00000-0 0 11348
2 99999 016.5575 354.9938 5885913 282.8680 187.7613 00.97151202    00

# Worst residual: 65.63 km
# MJD 59192.000000 (2020 Dec  9  0:00)
ZTF0KOI = ZTF0K7F
1 99999U 00000    20344.49919926  .00000000  00000-0  00000-0 0 11349
2 99999 016.5417 355.1988 5925940 283.5120 177.4881 00.97141098    00

# Worst residual: 51.90 km
# MJD 59193.000000 (2020 Dec 10  0:00)
ZTF0KOI = ZTF0K7F
1 99999U 00000    20345.49919926  .00000000  00000-0  00000-0 0 11340
2 99999 016.5256 355.4025 5967463 284.1503 167.2205 00.97146655    05

# Worst residual: 63.84 km
# MJD 59194.000000 (2020 Dec 11  0:00)
ZTF0KOI = ZTF0K7F
1 99999U 00000    20346.49919926  .00000000  00000-0  00000-0 0 11341
2 99999 016.5065 355.5760 6010470 284.7960 156.9864 00.97170177    03

# Worst residual: 88.16 km
# MJD 59195.000000 (2020 Dec 12  0:00)
ZTF0KOI = ZTF0K7F
1 99999U 00000    20347.49919926  .00000000  00000-0  00000-0 0 11342
2 99999 016.4898 355.8106 6052219 285.3810 146.7385 00.97188380    01

# Worst residual: 116.77 km
# MJD 59196.000000 (2020 Dec 13  0:00)
ZTF0KOI = ZTF0K7F
1 99999U 00000    20348.49919926  .00000000  00000-0  00000-0 0 11343
2 99999 016.4700 356.0205 6093241 285.9741 136.5100 00.97215283    00

# Worst residual: 153.63 km
# MJD 59197.000000 (2020 Dec 14  0:00)
ZTF0KOI = ZTF0K7F
1 99999U 00000    20349.49919926  .00000000  00000-0  00000-0 0 11344
2 99999 016.4492 356.2312 6133757 286.5594 126.2813 00.97249863    07

# Worst residual: 178.91 km
# MJD 59198.000000 (2020 Dec 15  0:00)
ZTF0KOI = ZTF0K7F
1 99999U 00000    20350.49919926  .00000000  00000-0  00000-0 0 11346
2 99999 016.4269 356.4462 6173826 287.1269 116.0656 00.97292578    07

# Worst residual: 192.17 km
# MJD 59199.000000 (2020 Dec 16  0:00)
ZTF0KOI = ZTF0K7F
1 99999U 00000    20351.49919926  .00000000  00000-0  00000-0 0 11347
2 99999 016.4025 356.6553 6213107 287.6920 105.8581 00.97347386    07

# Worst residual: 200.85 km
# MJD 59200.000000 (2020 Dec 17  0:00)
ZTF0KOI = ZTF0K7F
1 99999U 00000    20352.49919926  .00000000  00000-0  00000-0 0 11348
2 99999 016.3787 356.8935 6249892 288.2173 095.6487 00.97387581    06

# Worst residual: 189.92 km
# MJD 59201.000000 (2020 Dec 18  0:00)
ZTF0KOI = ZTF0K7F
1 99999U 00000    20353.49919926  .00000000  00000-0  00000-0 0 11349
2 99999 016.3568 357.0401 6286826 288.8250 085.4383 00.97453336    08

# Worst residual: 187.62 km
# MJD 59202.000000 (2020 Dec 19  0:00)
ZTF0KOI = ZTF0K7F
1 99999U 00000    20354.49919926  .00000000  00000-0  00000-0 0 11340
2 99999 016.3231 357.3200 6322738 289.3158 075.1956 00.97499632    02

# Worst residual: 163.69 km
# MJD 59203.000000 (2020 Dec 20  0:00)
ZTF0KOI = ZTF0K7F
1 99999U 00000    20355.49919926  .00000000  00000-0  00000-0 0 11341
2 99999 016.3016 357.6177 6358052 289.7679 064.9790 00.97555163    03

# Worst residual: 158.70 km
# MJD 59204.000000 (2020 Dec 21  0:00)
ZTF0KOI = ZTF0K7F
1 99999U 00000    20356.49919926  .00000000  00000-0  00000-0 0 11342
2 99999 016.2663 357.8682 6391595 290.2779 054.7327 00.97616176    05

# Worst residual: 164.78 km
# MJD 59205.000000 (2020 Dec 22  0:00)
ZTF0KOI = ZTF0K7F
1 99999U 00000    20357.49919926  .00000000  00000-0  00000-0 0 11343
2 99999 016.2366 358.1048 6423607 290.8107 044.4602 00.97664518    01

# Worst residual: 156.57 km
# MJD 59206.000000 (2020 Dec 23  0:00)
ZTF0KOI = ZTF0K7F
1 99999U 00000    20358.49919926  .00000000  00000-0  00000-0 0 11344
2 99999 016.1944 358.3871 6456307 291.2815 034.1955 00.97712699    03

# Worst residual: 137.32 km
# MJD 59207.000000 (2020 Dec 24  0:00)
ZTF0KOI = ZTF0K7F
1 99999U 00000    20359.49919926  .00000000  00000-0  00000-0 0 11345
2 99999 016.1657 358.6438 6489236 291.7812 023.9155 00.97737758    06

# Worst residual: 131.32 km
# MJD 59208.000000 (2020 Dec 25  0:00)
ZTF0KOI = ZTF0K7F
1 99999U 00000    20360.49919926  .00000000  00000-0  00000-0 0 11347
2 99999 016.1379 358.8915 6520477 292.2961 013.6119 00.97774081    09

# Worst residual: 109.15 km
# MJD 59209.000000 (2020 Dec 26  0:00)
ZTF0KOI = ZTF0K7F
1 99999U 00000    20361.49919926  .00000000  00000-0  00000-0 0 11348
2 99999 016.1008 359.1411 6552738 292.7992 003.3000 00.97778151    04

# Worst residual: 131.53 km
# MJD 59210.000000 (2020 Dec 27  0:00)
ZTF0KOI = ZTF0K7F
1 99999U 00000    20362.49919926  .00000000  00000-0  00000-0 0 11349
2 99999 016.0744 359.3852 6586810 293.3035 353.0114 00.97778967    00
